{
  "type": "FeatureCollection",
  "features": [
    {
      "type": "Feature",
      "properties": {
        "norad_id": 34761,
        "name": "COSMOS 2251 DEB",
        "group": "cosmos-2251-debris",
        "lat": 20.227304043477243,
        "lon": -175.7373438915838,
        "alt_km": 774.7351023961328,
        "timestamp": "2025-12-08T15:42:50.191197+00:00",
        "meta_object_name": "COSMOS 2251 DEB",
        "meta_object_id": "1993-036AAF",
        "meta_epoch": "2025-12-08T03:17:37.259520",
        "meta_mean_motion": 14.38024358,
        "meta_eccentricity": 0.00362143,
        "meta_inclination": 74.0292,
        "meta_ra_of_asc_node": 11.2731,
        "meta_arg_of_pericenter": 46.8456,
        "meta_mean_anomaly": 313.5715,
        "meta_ephemeris_type": 0,
        "meta_classification_type": "U",
        "meta_norad_cat_id": 34761,
        "meta_element_set_no": 999,
        "meta_rev_at_epoch": 87583,
        "meta_bstar": 0.00078028179,
        "meta_mean_motion_dot": 2.354e-05,
        "meta_mean_motion_ddot": 0,
        "tle_line1": "1 34761U 93036AAF 25342.13723680  .00002354  00000+0  78028-3 0  9999",
        "tle_line2": "2 34761  74.0292  11.2731 0036214  46.8456 313.5715 14.38024358875835"
      },
      "geometry": {
        "type": "Point",
        "coordinates": [
          -175.7373438915838,
          20.227304043477243
        ]
      }
    },
    {
      "type": "Feature",
      "properties": {
        "norad_id": 34784,
        "name": "COSMOS 2251 DEB",
        "group": "cosmos-2251-debris",
        "lat": 51.855577231071756,
        "lon": -6.406227251905455,
        "alt_km": 684.044920945651,
        "timestamp": "2025-12-08T15:42:50.191207+00:00",
        "meta_object_name": "COSMOS 2251 DEB",
        "meta_object_id": "1993-036AAM",
        "meta_epoch": "2025-12-08T07:14:38.956128",
        "meta_mean_motion": 14.60748391,
        "meta_eccentricity": 0.00495654,
        "meta_inclination": 74.0073,
        "meta_ra_of_asc_node": 332.8501,
        "meta_arg_of_pericenter": 143.4924,
        "meta_mean_anomaly": 216.9638,
        "meta_ephemeris_type": 0,
        "meta_classification_type": "U",
        "meta_norad_cat_id": 34784,
        "meta_element_set_no": 999,
        "meta_rev_at_epoch": 88470,
        "meta_bstar": 0.00074489151,
        "meta_mean_motion_dot": 3.668e-05,
        "meta_mean_motion_ddot": 0,
        "tle_line1": "1 34784U 93036AAM 25342.30183977  .00003668  00000+0  74489-3 0  9998",
        "tle_line2": "2 34784  74.0073 332.8501 0049565 143.4924 216.9638 14.60748391884702"
      },
      "geometry": {
        "type": "Point",
        "coordinates": [
          -6.406227251905455,
          51.855577231071756
        ]
      }
    },
    {
      "type": "Feature",
      "properties": {
        "norad_id": 34790,
        "name": "COSMOS 2251 DEB",
        "group": "cosmos-2251-debris",
        "lat": -6.338413882352675,
        "lon": -110.75890578637996,
        "alt_km": 757.4136127618822,
        "timestamp": "2025-12-08T15:42:50.191218+00:00",
        "meta_object_name": "COSMOS 2251 DEB",
        "meta_object_id": "1993-036AAT",
        "meta_epoch": "2025-12-08T04:39:28.211328",
        "meta_mean_motion": 14.24605557,
        "meta_eccentricity": 0.01007268,
        "meta_inclination": 74.0545,
        "meta_ra_of_asc_node": 251.89,
        "meta_arg_of_pericenter": 314.4823,
        "meta_mean_anomaly": 196.6536,
        "meta_ephemeris_type": 0,
        "meta_classification_type": "U",
        "meta_norad_cat_id": 34790,
        "meta_element_set_no": 999,
        "meta_rev_at_epoch": 86508,
        "meta_bstar": 0.0010779742,
        "meta_mean_motion_dot": 2.614e-05,
        "meta_mean_motion_ddot": 0,
        "tle_line1": "1 34790U 93036AAT 25342.19407652  .00002614  00000+0  10780-2 0  9994",
        "tle_line2": "2 34790  74.0545 251.8900 0100726 314.4823 196.6536 14.24605557865088"
      },
      "geometry": {
        "type": "Point",
        "coordinates": [
          -110.75890578637996,
          -6.338413882352675
        ]
      }
    },
    {
      "type": "Feature",
      "properties": {
        "norad_id": 34792,
        "name": "COSMOS 2251 DEB",
        "group": "cosmos-2251-debris",
        "lat": -20.182993474457604,
        "lon": 3.5092338212226406,
        "alt_km": 708.2685730436442,
        "timestamp": "2025-12-08T15:42:50.191228+00:00",
        "meta_object_name": "COSMOS 2251 DEB",
        "meta_object_id": "1993-036AAV",
        "meta_epoch": "2025-12-08T07:22:25.090176",
        "meta_mean_motion": 14.55897726,
        "meta_eccentricity": 0.00125304,
        "meta_inclination": 74.0173,
        "meta_ra_of_asc_node": 178.1209,
        "meta_arg_of_pericenter": 271.8728,
        "meta_mean_anomaly": 268.5308,
        "meta_ephemeris_type": 0,
        "meta_classification_type": "U",
        "meta_norad_cat_id": 34792,
        "meta_element_set_no": 999,
        "meta_rev_at_epoch": 87585,
        "meta_bstar": 0.0012637606,
        "meta_mean_motion_dot": 5.53e-05,
        "meta_mean_motion_ddot": 0,
        "tle_line1": "1 34792U 93036AAV 25342.30723484  .00005530  00000+0  12638-2 0  9997",
        "tle_line2": "2 34792  74.0173 178.1209 0012530 271.8728 268.5308 14.55897726875852"
      },
      "geometry": {
        "type": "Point",
        "coordinates": [
          3.5092338212226406,
          -20.182993474457604
        ]
      }
    },
    {
      "type": "Feature",
      "properties": {
        "norad_id": 34793,
        "name": "COSMOS 2251 DEB",
        "group": "cosmos-2251-debris",
        "lat": -50.79340431098829,
        "lon": 98.50248223319993,
        "alt_km": 805.3605444662107,
        "timestamp": "2025-12-08T15:42:50.191238+00:00",
        "meta_object_name": "COSMOS 2251 DEB",
        "meta_object_id": "1993-036AAW",
        "meta_epoch": "2025-12-08T05:18:52.943040",
        "meta_mean_motion": 14.38633452,
        "meta_eccentricity": 0.00501054,
        "meta_inclination": 74.0031,
        "meta_ra_of_asc_node": 258.7139,
        "meta_arg_of_pericenter": 54.0287,
        "meta_mean_anomaly": 96.4202,
        "meta_ephemeris_type": 0,
        "meta_classification_type": "U",
        "meta_norad_cat_id": 34793,
        "meta_element_set_no": 999,
        "meta_rev_at_epoch": 87265,
        "meta_bstar": 0.0005097631,
        "meta_mean_motion_dot": 1.559e-05,
        "meta_mean_motion_ddot": 0,
        "tle_line1": "1 34793U 93036AAW 25342.22144610  .00001559  00000+0  50976-3 0  9992",
        "tle_line2": "2 34793  74.0031 258.7139 0050105  54.0287  96.4202 14.38633452872655"
      },
      "geometry": {
        "type": "Point",
        "coordinates": [
          98.50248223319993,
          -50.79340431098829
        ]
      }
    },
    {
      "type": "Feature",
      "properties": {
        "norad_id": 34796,
        "name": "COSMOS 2251 DEB",
        "group": "cosmos-2251-debris",
        "lat": 0.21134229558477038,
        "lon": 43.94318920820023,
        "alt_km": 792.3090530412201,
        "timestamp": "2025-12-08T15:42:50.191249+00:00",
        "meta_object_name": "COSMOS 2251 DEB",
        "meta_object_id": "1993-036AAZ",
        "meta_epoch": "2025-12-07T17:35:44.416608",
        "meta_mean_motion": 14.4865249,
        "meta_eccentricity": 0.01001489,
        "meta_inclination": 74.0301,
        "meta_ra_of_asc_node": 225.7308,
        "meta_arg_of_pericenter": 328.8983,
        "meta_mean_anomaly": 87.0781,
        "meta_ephemeris_type": 0,
        "meta_classification_type": "U",
        "meta_norad_cat_id": 34796,
        "meta_element_set_no": 999,
        "meta_rev_at_epoch": 87955,
        "meta_bstar": 0.001174251,
        "meta_mean_motion_dot": 4.684e-05,
        "meta_mean_motion_ddot": 0,
        "tle_line1": "1 34796U 93036AAZ 25341.73315297  .00004684  00000+0  11743-2 0  9991",
        "tle_line2": "2 34796  74.0301 225.7308 0100148 328.8983  87.0781 14.48652490879556"
      },
      "geometry": {
        "type": "Point",
        "coordinates": [
          43.94318920820023,
          0.21134229558477038
        ]
      }
    },
    {
      "type": "Feature",
      "properties": {
        "norad_id": 34797,
        "name": "COSMOS 2251 DEB",
        "group": "cosmos-2251-debris",
        "lat": 28.98010657771308,
        "lon": 116.7517457001125,
        "alt_km": 798.2467130527075,
        "timestamp": "2025-12-08T15:42:50.191259+00:00",
        "meta_object_name": "COSMOS 2251 DEB",
        "meta_object_id": "1993-036ABA",
        "meta_epoch": "2025-12-08T02:15:30.483648",
        "meta_mean_motion": 14.42690241,
        "meta_eccentricity": 0.00721111,
        "meta_inclination": 73.9779,
        "meta_ra_of_asc_node": 108.638,
        "meta_arg_of_pericenter": 222.8023,
        "meta_mean_anomaly": 136.7506,
        "meta_ephemeris_type": 0,
        "meta_classification_type": "U",
        "meta_norad_cat_id": 34797,
        "meta_element_set_no": 999,
        "meta_rev_at_epoch": 87348,
        "meta_bstar": 0.0033221371,
        "meta_mean_motion_dot": 0.00011397,
        "meta_mean_motion_ddot": 0,
        "tle_line1": "1 34797U 93036ABA 25342.09410282  .00011397  00000+0  33221-2 0  9996",
        "tle_line2": "2 34797  73.9779 108.6380 0072111 222.8023 136.7506 14.42690241873482"
      },
      "geometry": {
        "type": "Point",
        "coordinates": [
          116.7517457001125,
          28.98010657771308
        ]
      }
    }
  ]
}